{
    "links": {
        "self": "http://www.neowsapp.com/rest/v1/neo/54016541?api_key=iIulBulltgU6a56xZRHN4H3l9WmuAYTsLGpBGhQ2"
    },
    "id": "54016541",
    "neo_reference_id": "54016541",
    "name": "(2020 HA)",
    "designation": "2020 HA",
    "nasa_jpl_url": "http://ssd.jpl.nasa.gov/sbdb.cgi?sstr=54016541",
    "absolute_magnitude_h": 25.721,
    "estimated_diameter": {
        "kilometers": {
            "estimated_diameter_min": 0.0190701881,
            "estimated_diameter_max": 0.0426422369
        },
        "meters": {
            "estimated_diameter_min": 19.0701880934,
            "estimated_diameter_max": 42.6422369204
        },
        "miles": {
            "estimated_diameter_min": 0.0118496618,
            "estimated_diameter_max": 0.0264966494
        },
        "feet": {
            "estimated_diameter_min": 62.5662359042,
            "estimated_diameter_max": 139.9023565781
        }
    },
    "is_potentially_hazardous_asteroid": false,
    "close_approach_data": [
        {
            "close_approach_date": "2020-04-19",
            "close_approach_date_full": "2020-Apr-19 13:26",
            "epoch_date_close_approach": 1587302760000,
            "relative_velocity": {
                "kilometers_per_second": "12.0118297436",
                "kilometers_per_hour": "43242.58707696",
                "miles_per_hour": "26869.2619534588"
            },
            "miss_distance": {
                "astronomical": "0.0256773202",
                "lunar": "9.9884775578",
                "kilometers": "3841272.409227974",
                "miles": "2386855.9951110812"
            },
            "orbiting_body": "Earth"
        }
    ],
    "orbital_data": {
        "orbit_id": "1",
        "orbit_determination_date": "2020-04-17 18:12:06",
        "first_observation_date": "2020-04-16",
        "last_observation_date": "2020-04-17",
        "data_arc_in_days": 1,
        "observations_used": 41,
        "orbit_uncertainty": "8",
        "minimum_orbit_intersection": ".025125",
        "jupiter_tisserand_invariant": "3.039",
        "epoch_osculation": "2458956.5",
        "eccentricity": ".6458241464455368",
        "semi_major_axis": "2.668689464127302",
        "inclination": "5.26529254278623",
        "ascending_node_longitude": "195.6581724007903",
        "orbital_period": "1592.375505372911",
        "perihelion_distance": ".9451853688290902",
        "perihelion_argument": "48.84706800743697",
        "aphelion_distance": "4.392193559425513",
        "perihelion_time": "2458985.402411178089",
        "mean_anomaly": "353.4658200977066",
        "mean_motion": ".2260773283596153",
        "equinox": "J2000",
        "orbit_class": {
            "orbit_class_type": "APO",
            "orbit_class_description": "Near-Earth asteroid orbits which cross the Earth’s orbit similar to that of 1862 Apollo",
            "orbit_class_range": "a (semi-major axis) > 1.0 AU; q (perihelion) < 1.017 AU"
        }
    },
    "is_sentry_object": false
}